GLOBALSTAR M075         
1 37192U 10054E   25134.84719723 -.00000084  00000+0  11060-3 0  9991
2 37192  51.9951 283.0494 0000708 109.6078  42.3621 12.62264700671631
GLOBALSTAR M073         
1 37193U 10054F   25134.42088742 -.00000067  00000+0  20486-3 0  9999
2 37193  52.0046 198.1423 0000277 170.5138 202.3568 12.62271465673571
GLOBALSTAR M083         
1 37739U 11033A   25134.46637992 -.00000108  00000+0 -23529-4 0  9993
2 37739  51.9837 146.7795 0000233 123.4700  36.4308 12.62263670642593
GLOBALSTAR M088         
1 37740U 11033B   25134.80874132 -.00000102  00000+0  78339-5 0  9995
2 37740  51.9749  51.2526 0000663  71.7399 325.9067 12.62265963638180
GLOBALSTAR M091         
1 37741U 11033C   25134.83110135 -.00000084  00000+0  10953-3 0  9990
2 37741  52.0022  14.6832 0000931  95.6364 342.8437 12.62267846638973
GLOBALSTAR M085         
1 37742U 11033D   25134.82374418 -.00000100  00000+0  19169-4 0  9994
2 37742  51.9880 325.7740 0000965 108.8808 356.4649 12.62268342639480
GLOBALSTAR M081         
1 37743U 11033E   25134.93879111 -.00000088  00000+0  87561-4 0  9993
2 37743  51.9971 328.1913 0000768 111.7138  35.9246 12.62263771639642
GLOBALSTAR M089         
1 37744U 11033F   25134.90439716 -.00000094  00000+0  52085-4 0  9994
2 37744  51.9932 282.5279 0000511 102.6631  69.8227 12.62269794640481
